OBJECT_NAME,OBJECT_ID,EPOCH,MEAN_MOTION,ECCENTRICITY,INCLINATION,RA_OF_ASC_NODE,ARG_OF_PERICENTER,MEAN_ANOMALY,EPHEMERIS_TYPE,CLASSIFICATION_TYPE,NORAD_CAT_ID,ELEMENT_SET_NO,REV_AT_EPOCH,BSTAR,MEAN_MOTION_DOT,MEAN_MOTION_DDOT
STARLINK-5422,2022-175AY,2026-06-24T06:00:02.000160,15.22776489,.00006308,53.1602,269.4647,115.5872,217.0024,0,U,54804,999,584,.3025085E-2,.71946E-3,0
STARLINK-5417,2022-175AZ,2026-06-23T13:25:24.271680,15.08020830,.00012993,53.2044,273.7345,87.0528,273.0612,0,U,54805,999,19611,-.59855E-5,-.379E-5,0
STARLINK-5412,2022-175BA,2026-06-24T06:00:02.000160,15.21277463,.00014505,53.1600,269.5111,77.7917,229.9592,0,U,54806,999,579,.30822702E-2,.70121E-3,0
STARLINK-5410,2022-175BB,2026-06-23T15:59:50.284608,15.08834429,.00010034,53.1584,272.8660,92.3147,267.7959,0,U,54807,999,19613,.27165567E-4,.144E-5,0
STARLINK-5413,2022-175BC,2026-06-23T15:22:10.690464,15.08844668,.00012823,53.1592,258.5234,86.5513,273.5625,0,U,54808,999,19633,.36694938E-4,.296E-5,0
STARLINK-5414,2022-175BD,2026-06-24T06:00:02.000160,15.21838015,.00011391,53.1599,269.4442,79.5586,261.6012,0,U,54809,999,584,.3059138E-2,.70757E-3,0
STARLINK-5408,2022-175BE,2026-06-23T13:08:17.701440,15.08837074,.00008097,53.1598,268.5420,75.1808,284.9273,0,U,54810,999,19618,.74072644E-4,.891E-5,0
STARLINK-5424,2022-175BF,2026-06-23T10:36:03.657600,15.08838867,.00012296,53.1590,269.2909,88.8264,271.2868,0,U,54811,999,19616,.20839748E-4,.44E-6,0
STARLINK-5382,2022-177A,2026-06-23T22:15:43.195392,15.27576823,.00012131,43.0030,255.8774,271.9338,88.1374,0,U,54820,999,19317,.26949945E-4,.48E-5,0
STARLINK-5385,2022-177B,2026-06-23T22:32:23.019648,15.27584194,.00017345,43.0030,255.9585,281.9883,78.0774,0,U,54821,999,19317,.52821967E-4,.1192E-4,0
STARLINK-5101,2022-177C,2026-06-23T22:52:42.826080,15.27582459,.0001698,43.0032,256.0577,274.5102,85.5556,0,U,54822,999,19317,.30300759E-4,.572E-5,0
STARLINK-5106,2022-177D,2026-06-23T22:21:16.271712,15.27579091,.00012172,43.0029,255.8998,270.9178,89.1534,0,U,54823,999,19317,-.30229067E-4,-.1094E-4,0
STARLINK-4643,2022-177E,2026-06-23T22:26:49.094016,15.27573068,.00013965,43.0049,255.9288,285.4977,74.5720,0,U,54824,999,19317,.41474828E-4,.879E-5,0
STARLINK-5107,2022-177G,2026-06-23T22:47:10.389984,15.27576542,.00016972,43.0019,256.0216,273.3396,86.7262,0,U,54826,999,19317,.8700855E-5,-.23E-6,0
STARLINK-5383,2022-177H,2026-06-23T16:41:38.278752,15.27582265,.00014111,43.0009,257.5587,259.1207,100.9486,0,U,54827,999,19313,.66973728E-4,.1581E-4,0
STARLINK-5381,2022-177J,2026-06-23T12:04:44.046912,15.27576787,.00020271,43.0018,258.6961,279.7195,80.3428,0,U,54828,999,19310,.35271996E-4,.708E-5,0
STARLINK-5394,2022-177L,2026-06-23T17:02:00.363552,15.27582875,.00012649,43.0009,257.6640,263.8088,96.2620,0,U,54830,999,19313,-.1053923E-5,-.291E-5,0
STARLINK-5395,2022-177M,2026-06-23T22:37:56.326656,15.27583894,.00011795,43.0022,255.9785,270.8934,89.1782,0,U,54831,999,19317,.39382433E-4,.822E-5,0
STARLINK-5386,2022-177Q,2026-06-23T13:59:14.817696,15.27572888,.00013106,43.0009,258.4318,266.1497,93.9205,0,U,54834,999,19312,-.9924743E-5,-.535E-5,0
STARLINK-5389,2022-177R,2026-06-23T16:52:45.060384,15.27576110,.00015387,42.9999,257.6217,276.5602,83.5074,0,U,54835,999,19313,.24582844E-4,.414E-5,0
STARLINK-5372,2022-177U,2026-06-23T15:11:54.207456,15.27577860,.0001571,43.0017,254.5468,272.7574,87.3098,0,U,54838,999,19316,.3913943E-4,.815E-5,0
STARLINK-5368,2022-177W,2026-06-23T15:02:39.018336,15.27578622,.00015814,43.0017,254.4948,272.3589,87.7081,0,U,54840,999,19316,.31761637E-4,.612E-5,0
STARLINK-4659,2022-177X,2026-06-23T13:43:18.395616,15.27572589,.00013093,43.0023,254.9466,268.6642,91.4060,0,U,54841,999,19315,-.11518346E-4,-.579E-5,0
STARLINK-5387,2022-177Y,2026-06-23T22:42:19.869120,15.27576740,.00017941,43.0030,252.5878,282.2935,77.7716,0,U,54842,999,19321,.30982076E-4,.59E-5,0
STARLINK-5304,2022-177Z,2026-06-23T21:37:46.740288,15.27577706,.00014137,43.0012,253.1148,272.7885,87.2804,0,U,54843,999,19320,.28851665E-4,.532E-5,0
STARLINK-5388,2022-177AA,2026-06-23T22:06:28.172160,15.27597654,.00014731,43.0011,255.7926,287.0095,73.0595,0,U,54844,999,19317,-.55804804E-4,-.1798E-4,0
STARLINK-5082,2022-177AB,2026-06-23T16:31:17.061888,15.27569131,.00017622,43.0009,254.0978,269.6777,90.3872,0,U,54845,999,19317,.9728121E-4,.2415E-4,0
STARLINK-5360,2022-177AC,2026-06-23T22:38:37.698432,15.27591669,.00018619,43.0028,252.5700,242.4439,117.6223,0,U,54846,999,19321,.1031518E-3,.2578E-4,0
STARLINK-5061,2022-177AD,2026-06-23T15:17:28.991040,15.27575539,.00015949,43.0011,231.9529,270.7267,89.3402,0,U,54847,999,19342,.8253701E-5,-.35E-6,0
STARLINK-5432,2022-177AE,2026-06-23T21:41:29.784480,15.27576708,.00021862,43.0043,241.8380,284.9944,75.0666,0,U,54848,999,19333,.9296419E-5,-.7E-7,0
