STARLINK-5422           
1 54804U 22175AY  26175.25002315  .00071946  00000+0  30251-2 0  9996
2 54804  53.1602 269.4647 0000630 115.5872 217.0024 15.22776489  5840
STARLINK-5417           
1 54805U 22175AZ  26174.55930870 -.00000379  00000+0 -59855-5 0  9993
2 54805  53.2044 273.7345 0001299  87.0528 273.0612 15.08020830196110
STARLINK-5412           
1 54806U 22175BA  26175.25002315  .00070121  00000+0  30823-2 0  9997
2 54806  53.1600 269.5111 0001450  77.7917 229.9592 15.21277463  5790
STARLINK-5410           
1 54807U 22175BB  26174.66655422  .00000144  00000+0  27166-4 0  9991
2 54807  53.1584 272.8660 0001003  92.3147 267.7959 15.08834429196132
STARLINK-5413           
1 54808U 22175BC  26174.64040151  .00000296  00000+0  36695-4 0  9992
2 54808  53.1592 258.5234 0001282  86.5513 273.5625 15.08844668196334
STARLINK-5414           
1 54809U 22175BD  26175.25002315  .00070757  00000+0  30591-2 0  9997
2 54809  53.1599 269.4442 0001139  79.5586 261.6012 15.21838015  5844
STARLINK-5408           
1 54810U 22175BE  26174.54742710  .00000891  00000+0  74073-4 0  9997
2 54810  53.1598 268.5420 0000809  75.1808 284.9273 15.08837074196187
STARLINK-5424           
1 54811U 22175BF  26174.44170900  .00000044  00000+0  20840-4 0  9996
2 54811  53.1590 269.2909 0001229  88.8264 271.2868 15.08838867196162
STARLINK-5382           
1 54820U 22177A   26174.92758328  .00000480  00000+0  26950-4 0  9999
2 54820  43.0030 255.8774 0001213 271.9338  88.1374 15.27576823193177
STARLINK-5385           
1 54821U 22177B   26174.93915532  .00001192  00000+0  52822-4 0  9991
2 54821  43.0030 255.9585 0001734 281.9883  78.0774 15.27584194193175
STARLINK-5101           
1 54822U 22177C   26174.95327345  .00000572  00000+0  30301-4 0  9992
2 54822  43.0032 256.0577 0001698 274.5102  85.5556 15.27582459193175
STARLINK-5106           
1 54823U 22177D   26174.93143833 -.00001094  00000+0 -30229-4 0  9990
2 54823  43.0029 255.8998 0001217 270.9178  89.1534 15.27579091193170
STARLINK-4643           
1 54824U 22177E   26174.93529044  .00000879  00000+0  41475-4 0  9996
2 54824  43.0049 255.9288 0001396 285.4977  74.5720 15.27573068193175
STARLINK-5107           
1 54826U 22177G   26174.94942581 -.00000023  00000+0  87009-5 0  9990
2 54826  43.0019 256.0216 0001697 273.3396  86.7262 15.27576542193178
STARLINK-5383           
1 54827U 22177H   26174.69558193  .00001581  00000+0  66974-4 0  9991
2 54827  43.0009 257.5587 0001411 259.1207 100.9486 15.27582265193134
STARLINK-5381           
1 54828U 22177J   26174.50328758  .00000708  00000+0  35272-4 0  9991
2 54828  43.0018 258.6961 0002027 279.7195  80.3428 15.27576787193107
STARLINK-5394           
1 54830U 22177L   26174.70972643 -.00000291  00000+0 -10539-5 0  9993
2 54830  43.0009 257.6640 0001264 263.8088  96.2620 15.27582875193138
STARLINK-5395           
1 54831U 22177M   26174.94301304  .00000822  00000+0  39382-4 0  9994
2 54831  43.0022 255.9785 0001179 270.8934  89.1782 15.27583894193174
STARLINK-5386           
1 54834U 22177Q   26174.58281039 -.00000535  00000+0 -99247-5 0  9999
2 54834  43.0009 258.4318 0001310 266.1497  93.9205 15.27572888193120
STARLINK-5389           
1 54835U 22177R   26174.70329931  .00000414  00000+0  24583-4 0  9992
2 54835  42.9999 257.6217 0001538 276.5602  83.5074 15.27576110193133
STARLINK-5372           
1 54838U 22177U   26174.63326629  .00000815  00000+0  39139-4 0  9996
2 54838  43.0017 254.5468 0001571 272.7574  87.3098 15.27577860193160
STARLINK-5368           
1 54840U 22177W   26174.62684049  .00000612  00000+0  31762-4 0  9990
2 54840  43.0017 254.4948 0001581 272.3589  87.7081 15.27578622193161
STARLINK-4659           
1 54841U 22177X   26174.57174069 -.00000579  00000+0 -11518-4 0  9992
2 54841  43.0023 254.9466 0001309 268.6642  91.4060 15.27572589193159
STARLINK-5387           
1 54842U 22177Y   26174.94606330  .00000590  00000+0  30982-4 0  9992
2 54842  43.0030 252.5878 0001794 282.2935  77.7716 15.27576740193219
STARLINK-5304           
1 54843U 22177Z   26174.90123542  .00000532  00000+0  28852-4 0  9997
2 54843  43.0012 253.1148 0001413 272.7885  87.2804 15.27577706193209
STARLINK-5388           
1 54844U 22177AA  26174.92115940 -.00001798  00000+0 -55805-4 0  9998
2 54844  43.0011 255.7926 0001473 287.0095  73.0595 15.27597654193179
STARLINK-5082           
1 54845U 22177AB  26174.68839192  .00002415  00000+0  97281-4 0  9993
2 54845  43.0009 254.0978 0001762 269.6777  90.3872 15.27569131193179
STARLINK-5360           
1 54846U 22177AC  26174.94349188  .00002578  00000+0  10315-3 0  9996
2 54846  43.0028 252.5700 0001861 242.4439 117.6223 15.27591669193210
STARLINK-5061           
1 54847U 22177AD  26174.63714110 -.00000035  00000+0  82537-5 0  9998
2 54847  43.0011 231.9529 0001594 270.7267  89.3402 15.27575539193424
STARLINK-5432           
1 54848U 22177AE  26174.90381695 -.00000007  00000+0  92964-5 0  9991
2 54848  43.0043 241.8380 0002186 284.9944  75.0666 15.27576708193335
